OBJECT_NAME,OBJECT_ID,EPOCH,MEAN_MOTION,ECCENTRICITY,INCLINATION,RA_OF_ASC_NODE,ARG_OF_PERICENTER,MEAN_ANOMALY,EPHEMERIS_TYPE,CLASSIFICATION_TYPE,NORAD_CAT_ID,ELEMENT_SET_NO,REV_AT_EPOCH,BSTAR,MEAN_MOTION_DOT,MEAN_MOTION_DDOT
H-2A R/B,2006-002B,2026-07-04T04:35:18.761568,15.18304829,.00501766,98.2586,342.5621,203.5660,156.3273,0,U,28932,999,11210,.53518658E-3,.1127E-3,0
RESURS-DK 1,2006-021A,2026-07-03T10:17:13.903296,15.13284279,.00066893,69.9339,297.5099,283.9720,76.0702,0,U,29228,999,10503,.14399856E-3,.2461E-4,0
CZ-4B R/B,2006-046C,2026-07-04T01:31:46.301376,15.17910891,.00316078,97.5437,229.6187,221.3642,138.5198,0,U,29507,999,7769,.26143415E-3,.53E-4,0
CZ-2C R/B,2007-010B,2026-07-04T05:59:02.163840,14.20279897,.00580845,98.4112,292.7670,316.1899,43.4678,0,U,31114,999,99626,.66251216E-4,.102E-5,0
COSMO-SKYMED 1,2007-023A,2026-07-04T05:52:34.248576,14.97184437,.00012036,97.8852,17.2447,83.0288,277.1071,0,U,31598,999,3234,.22584723E-3,.2551E-4,0
COSMOS 2428,2007-029A,2026-07-03T18:44:15.891936,14.12929247,.00071446,70.9379,319.6362,103.1479,257.0440,0,U,31792,999,98049,.80298375E-4,.102E-5,0
SL-16 R/B,2007-029B,2026-07-04T00:41:05.114688,14.14852305,.0002345,70.9763,287.8262,260.7470,271.6605,0,U,31793,999,98182,-.89584772E-4,-.221E-5,0
KORONAS-FOTON,2009-003A,2026-07-04T04:00:43.236576,15.46090609,.00126122,82.4301,154.5416,95.8308,264.4379,0,U,33504,999,96372,.32600039E-3,.16043E-3,0
CZ-2C R/B,2011-030B,2026-07-04T02:51:40.994208,14.81514183,.00515733,97.8663,140.2008,332.9824,37.2123,0,U,37731,999,80733,.18774774E-3,.1451E-4,0
H-2A R/B,2012-025E,2026-07-04T05:10:15.770784,14.95802431,.00422683,98.4838,161.7660,292.0649,67.6083,0,U,38341,999,76563,.3258787E-3,.3631E-4,0
SHIJIAN-16 (SJ-16),2013-057A,2026-07-04T07:56:55.139136,14.92644160,.00162188,74.9738,324.2105,190.7208,169.3637,0,U,39358,999,68890,.19372794E-3,.1972E-4,0
SL-4 R/B,2014-021B,2026-07-04T02:34:06.597120,15.42293149,.00903463,51.6056,127.8608,167.7775,192.5432,0,U,39679,999,67422,.27780919E-3,.13665E-3,0
ALOS-2,2014-029A,2026-07-03T18:38:40.142400,14.79475407,.00016432,97.9231,281.7034,89.0013,271.1387,0,U,39766,999,65403,.20504017E-3,.148E-4,0
YAOGAN-29,2015-069A,2026-07-04T07:33:03.782304,14.83101605,.00016011,98.0016,213.9743,30.2009,329.9296,0,U,41038,999,57316,.13377845E-3,.1036E-4,0
ASTRO-H (HITOMI),2016-012A,2026-07-04T01:58:59.278656,15.10592788,.000956,31.0003,325.0676,62.7335,297.4276,0,U,41337,999,56984,.19724321E-3,.3436E-4,0
HXMT (HUIYAN),2017-034A,2026-07-04T04:05:18.786912,15.18609494,.00328041,43.0142,88.4662,253.6747,106.0493,0,U,42758,999,50024,.28908436E-3,.5936E-4,0
SAOCOM 1A,2018-076A,2026-07-04T06:48:33.204096,14.82161940,.00015423,97.8881,11.7830,81.4523,278.6865,0,U,43641,999,41863,.9085869E-4,.671E-5,0
H-2A R/B,2018-084L,2026-07-03T16:52:40.812096,15.45808334,.00214707,98.8548,67.2082,342.7657,17.2857,0,U,43682,999,42367,.5405299E-3,.26364E-3,0
SAOCOM 1B,2020-059A,2026-07-04T07:33:30.612960,14.82149637,.00015657,97.8886,10.9094,80.4149,279.7241,0,U,46265,999,31602,-.23632316E-4,-.24E-5,0
CSS (TIANHE),2021-035A,2026-07-03T05:28:28.025760,15.57904594,.00028803,41.4672,224.3616,262.1202,97.9309,0,U,48274,999,29621,.10677817E-3,.7882E-4,0
COSMOS 2550,2021-056A,2026-07-03T03:07:36.240384,15.33883607,.00083727,67.1430,51.6786,268.3779,91.6416,0,U,48865,999,28116,.18656358E-3,.5961E-4,0
CZ-2C R/B,2022-058K,2026-07-03T23:57:25.197984,15.63075745,.00313408,50.1860,75.9700,336.5094,23.4447,0,U,52794,999,22827,.47352398E-3,.44827E-3,0
CZ-2C R/B,2022-132E,2026-07-04T06:28:55.426080,15.73707912,.00119826,97.2895,193.0816,27.2802,332.9090,0,U,54039,999,20863,.68911777E-3,.97831E-3,0
GSLV R/B,2022-138AN,2026-07-03T19:49:15.653568,14.97337203,.00241868,87.3814,127.3970,89.2671,271.1332,0,U,54149,999,20130,.25921026E-3,.3053E-4,0
XRISM,2023-137A,2026-07-04T06:46:50.870208,15.12614596,.00077524,31.0013,248.8556,136.4364,223.6888,0,U,57800,999,15545,.31526399E-3,.5746E-4,0
ACS3,2024-077B,2026-07-03T18:43:39.821664,13.94890639,.01096363,97.1712,99.8814,48.9102,312.1471,0,U,59588,999,11035,.37511641E-1,.53302E-3,0
SPACEMOBILE-003,2024-163A,2026-06-26T19:29:47.816736,15.20822722,.0005991,52.9744,265.1828,141.0621,219.0806,0,U,61045,999,9923,.90246E-4,.1689E-4,0
SPACEMOBILE-005,2024-163B,2026-07-04T03:44:33.921888,15.20843760,.00088419,52.9808,231.3455,160.1292,200.0048,0,U,61046,999,10034,.49627381E-3,.10792E-3,0
SPACEMOBILE-001,2024-163C,2026-07-02T12:16:45.237216,15.20846259,.00078041,52.9759,238.6268,154.4768,205.6613,0,U,61047,999,10009,.14601047E-3,.2939E-4,0
SPACEMOBILE-002,2024-163D,2026-07-04T03:19:38.362944,15.20868591,.00070562,52.9729,231.1858,158.9646,201.1640,0,U,61048,999,10034,.62925838E-3,.13784E-3,0
