H-2A R/B                
1 28932U 06002B   26185.19118937  .00011270  00000+0  53519-3 0  9999
2 28932  98.2586 342.5621 0050176 203.5660 156.3273 15.18304829112101
RESURS-DK 1             
1 29228U 06021A   26184.42863314  .00002461  00000+0  14400-3 0  9998
2 29228  69.9339 297.5099 0006689 283.9720  76.0702 15.13284279105038
CZ-4B R/B               
1 29507U 06046C   26185.06373034  .00005300  00000+0  26143-3 0  9993
2 29507  97.5437 229.6187 0031607 221.3642 138.5198 15.17910891 77698
CZ-2C R/B               
1 31114U 07010B   26185.24933060  .00000102  00000+0  66251-4 0  9993
2 31114  98.4112 292.7670 0058084 316.1899  43.4678 14.20279897996265
COSMO-SKYMED 1          
1 31598U 07023A   26185.24484084  .00002551  00000+0  22585-3 0  9991
2 31598  97.8852  17.2447 0001203  83.0288 277.1071 14.97184437 32342
COSMOS 2428             
1 31792U 07029A   26184.78073949  .00000102  00000+0  80298-4 0  9991
2 31792  70.9379 319.6362 0007144 103.1479 257.0440 14.12929247980493
SL-16 R/B               
1 31793U 07029B   26185.02853142 -.00000221  00000+0 -89585-4 0  9993
2 31793  70.9763 287.8262 0002345 260.7470 271.6605 14.14852305981820
KORONAS-FOTON           
1 33504U 09003A   26185.16716709  .00016043  00000+0  32600-3 0  9993
2 33504  82.4301 154.5416 0012612  95.8308 264.4379 15.46090609963728
CZ-2C R/B               
1 37731U 11030B   26185.11922447  .00001451  00000+0  18775-3 0  9999
2 37731  97.8663 140.2008 0051573 332.9824  37.2123 14.81514183807334
H-2A R/B                
1 38341U 12025E   26185.21546031  .00003631  00000+0  32588-3 0  9994
2 38341  98.4838 161.7660 0042268 292.0649  67.6083 14.95802431765636
SHIJIAN-16 (SJ-16)      
1 39358U 13057A   26185.33119374  .00001972  00000+0  19373-3 0  9991
2 39358  74.9738 324.2105 0016218 190.7208 169.3637 14.92644160688903
SL-4 R/B                
1 39679U 14021B   26185.10702080  .00013665  00000+0  27781-3 0  9990
2 39679  51.6056 127.8608 0090346 167.7775 192.5432 15.42293149674220
ALOS-2                  
1 39766U 14029A   26184.77685350  .00001480  00000+0  20504-3 0  9995
2 39766  97.9231 281.7034 0001643  89.0013 271.1387 14.79475407654039
YAOGAN-29               
1 41038U 15069A   26185.31462711  .00001036  00000+0  13378-3 0  9998
2 41038  98.0016 213.9743 0001601  30.2009 329.9296 14.83101605573164
ASTRO-H (HITOMI)        
1 41337U 16012A   26185.08263054  .00003436  00000+0  19724-3 0  9999
2 41337  31.0003 325.0676 0009560  62.7335 297.4276 15.10592788569847
HXMT (HUIYAN)           
1 42758U 17034A   26185.17035633  .00005936  00000+0  28908-3 0  9993
2 42758  43.0142  88.4662 0032804 253.6747 106.0493 15.18609494500248
SAOCOM 1A               
1 43641U 18076A   26185.28371764  .00000671  00000+0  90859-4 0  9998
2 43641  97.8881  11.7830 0001542  81.4523 278.6865 14.82161940418636
H-2A R/B                
1 43682U 18084L   26184.70325014  .00026364  00000+0  54053-3 0  9997
2 43682  98.8548  67.2082 0021470 342.7657  17.2857 15.45808334423673
SAOCOM 1B               
1 46265U 20059A   26185.31493765 -.00000240  00000+0 -23632-4 0  9996
2 46265  97.8886  10.9094 0001565  80.4149 279.7241 14.82149637316026
CSS (TIANHE)            
1 48274U 21035A   26184.22810215  .00007882  00000+0  10678-3 0  9997
2 48274  41.4672 224.3616 0002880 262.1202  97.9309 15.57904594296214
COSMOS 2550             
1 48865U 21056A   26184.13028056  .00005961  00000+0  18656-3 0  9990
2 48865  67.1430  51.6786 0008372 268.3779  91.6416 15.33883607281168
CZ-2C R/B               
1 52794U 22058K   26184.99820831  .00044827  00000+0  47352-3 0  9993
2 52794  50.1860  75.9700 0031340 336.5094  23.4447 15.63075745228276
CZ-2C R/B               
1 54039U 22132E   26185.27008595  .00097831  00000+0  68912-3 0  9995
2 54039  97.2895 193.0816 0011982  27.2802 332.9090 15.73707912208630
GSLV R/B                
1 54149U 22138AN  26184.82587562  .00003053  00000+0  25921-3 0  9995
2 54149  87.3814 127.3970 0024186  89.2671 271.1332 14.97337203201303
XRISM                   
1 57800U 23137A   26185.28253322  .00005746  00000+0  31526-3 0  9996
2 57800  31.0013 248.8556 0007752 136.4364 223.6888 15.12614596155453
ACS3                    
1 59588U 24077B   26184.78032201  .00053302  00000+0  37512-1 0  9990
2 59588  97.1712  99.8814 0109636  48.9102 312.1471 13.94890639110353
SPACEMOBILE-003         
1 61045U 24163A   26177.81235899  .00001689  00000+0  90246-4 0  9998
2 61045  52.9744 265.1828 0005991 141.0621 219.0806 15.20822722 99230
SPACEMOBILE-005         
1 61046U 24163B   26185.15594817  .00010792  00000+0  49627-3 0  9994
2 61046  52.9808 231.3455 0008841 160.1292 200.0048 15.20843760100344
SPACEMOBILE-001         
1 61047U 24163C   26183.51163469  .00002939  00000+0  14601-3 0  9996
2 61047  52.9759 238.6268 0007804 154.4768 205.6613 15.20846259100091
SPACEMOBILE-002         
1 61048U 24163D   26185.13863846  .00013784  00000+0  62926-3 0  9996
2 61048  52.9729 231.1858 0007056 158.9646 201.1640 15.20868591100347
